INTELSAT 10-02          
1 28358U 04022A   24340.40125178  .00000009  00000+0  00000+0 0  9992
2 28358   0.0148  43.0848 0000799 237.6711 297.4347  1.00271368 74959
ANIK F2                 
1 28378U 04027A   24340.49689734 -.00000030  00000+0  00000+0 0  9996
2 28378   1.8404  86.9125 0000637  73.2890 342.3466  1.00270901 35661
AMC-15                  
1 28446U 04041A   24340.22884441 -.00000069  00000+0  00000+0 0  9993
2 28446   0.0261  33.1647 0002110 208.2211 170.4863  1.00275362 73701
NSS-10                  
1 28526U 05003A   24340.22566281 -.00000232  00000+0  00000+0 0  9992
2 28526   5.0470  77.1776 0002734 180.4130 220.7246  1.00269904 47554
XTAR-EUR                
1 28542U 05005A   24339.94439464  .00000171  00000+0  00000+0 0  9992
2 28542   2.8886  83.6831 0006066 189.7079 169.8386  1.00270343 72586
XM-3 (RHYTHM)           
1 28626U 05008A   24340.21619285 -.00000185  00000+0  00000+0 0  9997
2 28626   0.0141 267.5652 0004717 316.6178 203.0324  1.00269835 37015
INMARSAT 4-F1           
1 28628U 05009A   24340.57699032  .00000050  00000+0  00000+0 0  9997
2 28628   4.4648  41.6444 0003008 222.6564 196.3587  1.00270867 72071
DIRECTV 8               
1 28659U 05019A   24340.49533348  .00000021  00000+0  00000+0 0  9998
2 28659   0.0163 324.2784 0002849 283.7275 246.0598  1.00273021 71478
GALAXY 28 (G-28)        
1 28702U 05022A   24340.50124137 -.00000166  00000+0  00000+0 0  9996
2 28702   1.8547  85.8773 0006831 178.4816 261.8719  1.00272416 46385
THAICOM 4               
1 28786U 05028A   24340.03521771 -.00000342  00000+0  00000+0 0  9993
2 28786   0.0178 332.6323 0002275 270.1575 323.7389  1.00271093 46642
GALAXY 14 (G-14)        
1 28790U 05030A   24340.68299549 -.00000102  00000+0  00000+0 0  9991
2 28790   3.5756  81.7647 0003566 222.6039 122.8620  0.99026418 70693
ANIK F1R                
1 28868U 05036A   24340.49767927 -.00000055  00000+0  00000+0 0  9999
2 28868   2.8744  83.5266 0001266 145.0338 278.1174  1.00271571 40859
SYRACUSE 3A             
1 28885U 05041B   24340.66622755  .00000149  00000+0  00000+0 0  9995
2 28885   3.2128  82.7836 0002281 167.5028  86.3557  1.00270806 70134
INMARSAT 4-F2           
1 28899U 05044A   24339.97568858 -.00000242  00000+0  00000+0 0  9993
2 28899   4.3838  42.9865 0002827 213.5377 312.4917  1.00270201 69910
SPACEWAY 2              
1 28903U 05046B   24340.57271617 -.00000196  00000+0  00000+0 0  9991
2 28903   4.0349  78.1325 0002775  79.4552 293.5809  0.99065641 45749
METEOSAT-9 (MSG-2)      
1 28912U 05049B   24331.84702219  .00000144  00000+0  00000+0 0  9993
2 28912   8.0635  59.4636 0001814 203.9464 153.5423  1.00276594  1313
EUTELSAT 174A           
1 28924U 05052A   24340.12471904  .00000029  00000+0  00000+0 0  9997
2 28924   2.7963  83.4378 0006349 169.8848  40.0153  1.00271814 46729
ECHOSTAR 10             
1 28935U 06003A   24340.53487788 -.00000036  00000+0  00000+0 0  9997
2 28935   0.0132 329.9688 0001459 233.8694 313.3721  1.00271477 68861
SPAINSAT                
1 28945U 06007A   24339.87717613 -.00000195  00000+0  00000+0 0  9996
2 28945   0.0376 254.9932 0005475 347.6157 117.3593  1.00268422 68608
EUTELSAT HOTBIRD 13E    
1 28946U 06007B   24340.22991997 -.00000188  00000+0  00000+0 0  9999
2 28946   0.6535  94.9062 0026160  17.8962  28.4898  0.99624072 68729
JCSAT-5A                
1 29045U 06010A   24340.54520292 -.00000309  00000+0  00000+0 0  9990
2 29045   0.0146  16.8004 0001727 249.0008 137.3689  1.00270414 68169
ASTRA 1KR               
1 29055U 06012A   24340.16537913  .00000140  00000+0  00000+0 0  9991
2 29055   0.0256 305.4355 0005443 307.2995 260.4578  1.00271256 40114
EWS-G1 (GOES 13)        
1 29155U 06018A   24340.51056175 -.00000200  00000+0  00000+0 0  9991
2 29155   3.0729  83.2221 0063955 257.0121  47.0504  0.98831873 37725
GALAXY 16 (G-16)        
1 29236U 06023A   24340.49933000 -.00000107  00000+0  00000+0 0  9991
2 29236   0.0382 124.0518 0002496 128.4022 263.1026  1.00271779 67375
EUTELSAT HOTBIRD 13B    
1 29270U 06032A   24340.52556793  .00000175  00000+0  00000+0 0  9997
2 29270   0.2137  85.5603 0004034 183.1598  28.3969  1.00272405 41708
JCSAT-3A                
1 29272U 06033A   24340.52202065 -.00000326  00000+0  00000+0 0  9999
2 29272   0.0148  12.0896 0002056 238.3328 140.3260  1.00270522 42130
SYRACUSE 3B             
1 29273U 06033B   24340.51948628  .00000041  00000+0  00000+0 0  9994
2 29273   1.4626  87.2370 0005215 177.5067   0.4039  1.00271336 67076
KOREASAT 5 (MUGUNGWHA 5)
1 29349U 06034A   24340.25554973 -.00000338  00000+0  00000+0 0  9996
2 29349   0.3321  92.2886 0001920 200.9869 346.3328  1.00269138 35714
DIRECTV 9S              
1 29494U 06043A   24340.53638094 -.00000094  00000+0  00000+0 0  9994
2 29494   0.9730  87.6869 0002810 161.8768 277.1778  1.00271169 45781
OPTUS D1                
1 29495U 06043B   24340.54979904 -.00000164  00000+0  00000+0 0  9992
2 29495   1.5876  86.6432 0003669 166.6996 171.4362  1.00269536 66518
BADR-4                  
1 29526U 06051A   24340.52417784  .00000165  00000+0  00000+0 0  9997
2 29526   0.5574  85.7769 0008090 199.4351   4.5914  1.00274799 45661
WILDBLUE-1              
1 29643U 06054A   24340.49689734 -.00000030  00000+0  00000+0 0  9994
2 29643   1.3548  87.8241 0001705 153.4365 261.2407  1.00271648 48190
SKYNET 5A               
1 30794U 07007B   24340.49632791 -.00000252  00000+0  00000+0 0  9999
2 30794   3.8721  80.4774 0004684 187.0863  81.0705  1.00268712 65099
ANIK F3                 
1 31102U 07009A   24340.42405229  .00000019  00000+0  00000+0 0  9992
2 31102   0.0173 350.1824 0001841 264.0135 214.4891  1.00271366 40962
ASTRA 1L                
1 31306U 07016A   24340.16537913  .00000140  00000+0  00000+0 0  9998
2 31306   0.0522 331.0895 0006228 305.4679 236.6394  1.00269948 39380
GALAXY 17 (G-17)        
1 31307U 07016B   24340.50202329 -.00000187  00000+0  00000+0 0  9999
2 31307   1.5510  87.0821 0006774 190.3440 253.1373  1.00270912 64207
ZHONGXING-6B            
1 31800U 07031A   24340.52757779 -.00000342  00000+0  00000+0 0  9993
2 31800   0.9531  88.6789 0004413 175.4285 115.9694  1.00271298 63826
DIRECTV 10              
1 31862U 07032A   24340.23273539 -.00000082  00000+0  00000+0 0  9998
2 31862   0.0343 155.5238 0000493  68.4226 191.5865  1.00267157 39988
BSAT-3A                 
1 32019U 07036B   24340.59448906 -.00000331  00000+0  00000+0 0  9995
2 32019   0.0412 230.1234 0004320  12.4611 156.1500  1.00267729 44924
OPTUS D2                
1 32252U 07044A   24340.61423299 -.00000090  00000+0  00000+0 0  9996
2 32252   0.6239  89.2657 0006758 173.0801 193.8106  1.00271078 62977
INTELSAT 11 (IS-11)     
1 32253U 07044B   24340.22453337 -.00000249  00000+0  00000+0 0  9996
2 32253   2.1062  85.6128 0004010 184.7428 202.0050  1.00272051 62899
WGS F1 (USA 195)        
1 32258U 07046A   24340.22462025 -.00000247  00000+0  00000+0 0  9995
2 32258   0.1096  92.6358 0000807 104.1405 276.0903  1.00270758 46738
SKYNET 5B               
1 32294U 07056B   24340.09509277  .00000160  00000+0  00000+0 0  9995
2 32294   3.8235  80.1435 0003809 172.7503 240.8185  1.00274070 62590
ASTRA 4A                
1 32299U 07057A   24340.51974693  .00000052  00000+0  00000+0 0  9996
2 32299   0.0422  64.2356 0002600 180.6146  21.8867  1.00271515 46043
HORIZONS-2              
1 32388U 07063B   24340.50428219 -.00000234  00000+0  00000+0 0  9992
2 32388   1.1544  87.5666 0002098 184.2346 270.7559  1.00270191 62213
THURAYA-3               
1 32404U 08001A   24340.10968872 -.00000284  00000+0  00000+0 0  9999
2 32404   5.0915  33.7054 0002352 228.0477 310.6369  1.00269502 61885
THOR 5                  
1 32487U 08006A   24340.40125178  .00000010  00000+0  00000+0 0  9998
2 32487   0.0105 339.9435 0002593 287.2486 311.1913  1.00270091 61718
AMC-14                  
1 32708U 08011A   24338.83942310  .00000082  00000+0  00000+0 0  9998
2 32708  23.3103  27.2636 0036909 351.2130  14.3807  1.00274726 62552
DIRECTV 11              
1 32729U 08013A   24340.49924311 -.00000106  00000+0  00000+0 0  9997
2 32729   0.0115 172.7616 0000564 353.8891 348.6972  1.00271623 39995
ICO G1                  
1 32763U 08016A   24340.21462899 -.00000154  00000+0  00000+0 0  9999
2 32763   5.1692  36.0998 0002253 215.4833 167.3540  1.00271407 60946
VINASAT-1               
1 32767U 08018A   24340.54511604 -.00000309  00000+0  00000+0 0  9992
2 32767   0.0130 324.8198 0001912 301.3643 136.8507  1.00272484 60980
STAR ONE C2             
1 32768U 08018B   24340.22010247 -.00000256  00000+0  00000+0 0  9996
2 32768   0.0266 347.2880 0002679 280.7902 180.6670  1.00268575 61050
AMOS-3                  
1 32794U 08022A   24340.41510846 -.00000015  00000+0  00000+0 0  9994
2 32794   0.0547 105.1440 0002608 131.7558 343.1425  1.00271312 76736
GALAXY 18 (G-18)        
1 32951U 08024A   24340.42896644  .00000045  00000+0  00000+0 0  9997
2 32951   0.0161   8.0470 0003045 252.9901 205.1193  1.00271610 40259
ZHONGXING-9             
1 33051U 08028A   24340.53729679 -.00000227  00000+0  00000+0 0  9991
2 33051   0.0151 273.7404 0004284 358.5525  88.1473  1.00267944 60436
SKYNET 5C               
1 33055U 08030A   24340.48331144 -.00000120  00000+0  00000+0 0  9990
2 33055   2.3490  83.5345 0004549 182.2176 325.2191  1.00271379 60350
TURKSAT 3A              
1 33056U 08030B   24340.52730553  .00000165  00000+0  00000+0 0  9991
2 33056   0.0669 110.0932 0003023 130.2022  66.3599  1.00271419 46759
INTELSAT 25 (IS-25)     
1 33153U 08034A   24340.22679227 -.00000204  00000+0  00000+0 0  9995
2 33153   1.2609  87.2554 0002940 172.9985 224.4230  1.00270472 60097
BADR-6                  
1 33154U 08034B   24340.50393466 -.00000049  00000+0  00000+0 0  9992
2 33154   1.4027  85.5187 0003675 316.8184 138.3344  0.98743701 60155
